H1 CPF 01  gfz 2021 09 20 00  7631 terrasarx 
H2 0702601  6201 31698    2021 09 20 00 59 42 2021 09 25 00 00 42   120 1 1  0 0 0
H9
10 0 59477  53262.000000  0   -1383040.751   -229165.321  -6750974.737
10 0 59477  53382.000000  0    -785816.237    463215.029  -6834428.954
10 0 59477  53502.000000  0    -163029.542   1136899.944  -6798702.088
10 0 59477  53622.000000  0     474104.182   1779874.095  -6644406.336
10 0 59477  53742.000000  0    1113912.278   2380843.988  -6374194.089
10 0 59477  53862.000000  0    1744474.657   2929433.626  -5992717.914
10 0 59477  53982.000000  0    2353841.410   3416362.993  -5506558.395
10 0 59477  54102.000000  0    2930256.351   3833605.766  -4924120.743
10 0 59477  54222.000000  0    3462382.556   4174525.719  -4255501.474
10 0 59477  54342.000000  0    3939526.917   4433988.749  -3512324.084
10 0 59477  54462.000000  0    4351858.661   4608446.972  -2707545.042
10 0 59477  54582.000000  0    4690615.809   4695991.980  -1855231.974
10 0 59477  54702.000000  0    4948295.422   4696376.706   -970319.705
10 0 59477  54822.000000  0    5118822.746   4611003.551    -68345.164
10 0 59477  54942.000000  0    5197691.957   4442878.960    834831.027
10 0 59477  55062.000000  0    5182077.737   4196536.474   1723310.086
10 0 59477  55182.000000  0    5070915.200   3877928.575   2581443.678
10 0 59477  55302.000000  0    4864942.698   3494288.921   3394119.192
10 0 59477  55422.000000  0    4566706.580   3053969.882   4147032.962
10 0 59477  55542.000000  0    4180529.818   2566259.472   4826945.859
10 0 59477  55662.000000  0    3712446.393   2041183.516   5421917.471
10 0 59477  55782.000000  0    3170098.915   1489297.062   5921515.069
10 0 59477  55902.000000  0    2562607.126    921469.224   6316991.393
10 0 59477  56022.000000  0    1900409.252    348667.436   6601430.383
10 0 59477  56142.000000  0    1195079.741   -218253.068   6769862.262
10 0 59477  56262.000000  0     459124.759   -768754.384   6819347.102
10 0 59477  56382.000000  0    -294240.796  -1292811.933   6749022.301
10 0 59477  56502.000000  0   -1051330.491  -1781096.522   6560116.089
10 0 59477  56622.000000  0   -1798234.138  -2225140.470   6255925.962
10 0 59477  56742.000000  0   -2521070.875  -2617483.847   5841764.450
10 0 59477  56862.000000  0   -3206247.044  -2951801.722   5324874.878
10 0 59477  56982.000000  0   -3840716.803  -3223009.962   4714311.242
10 0 59477  57102.000000  0   -4412235.145  -3427344.912   4020783.243
10 0 59477  57222.000000  0   -4909599.325  -3562416.406   3256471.906
10 0 59477  57342.000000  0   -5322874.499  -3627233.274   2434818.009
10 0 59477  57462.000000  0   -5643599.494  -3622201.343   1570284.897
10 0 59477  57582.000000  0   -5864965.372  -3549092.002    678098.582
10 0 59477  57702.000000  0   -5981962.302  -3410981.688   -226027.414
10 0 59477  57822.000000  0   -5991491.516  -3212164.944  -1126177.365
10 0 59477  57942.000000  0   -5892438.363  -2958042.112  -2006523.803
10 0 59477  58062.000000  0   -5685703.362  -2654984.494  -2851613.842
10 0 59477  58182.000000  0   -5374193.538  -2310182.250  -3646645.177
10 0 59477  58302.000000  0   -4962773.915  -1931478.381  -4377727.140
10 0 59477  58422.000000  0   -4458181.689  -1527193.453  -5032121.341
10 0 59477  58542.000000  0   -3868905.333  -1105945.140  -5598458.714
10 0 59477  58662.000000  0   -3205031.559   -676466.493  -6066928.290
10 0 59477  58782.000000  0   -2478065.262   -247427.608  -6429435.960
10 0 59477  58902.000000  0   -1700725.852    172735.692  -6679732.762
10 0 59477  59022.000000  0    -886723.646    575982.734  -6813511.003
10 0 59477  59142.000000  0     -50521.893    954817.218  -6828469.994
10 0 59477  59262.000000  0     792913.791   1302422.725  -6724350.641
10 0 59477  59382.000000  0    1628376.144   1612781.596  -6502941.873
10 0 59477  59502.000000  0    2440685.347   1880778.155  -6168053.798
10 0 59477  59622.000000  0    3214960.387   2102282.490  -5725458.751
10 0 59477  59742.000000  0    3936888.284   2274213.879  -5182800.743
10 0 59477  59862.000000  0    4592988.821   2394583.856  -4549475.716
10 0 59477  59982.000000  0    5170870.954   2462517.670  -3836479.606
10 0 59477  60102.000000  0    5659473.282   2478252.917  -3056226.214
10 0 59477  60222.000000  0    6049284.838   2443115.522  -2222338.804
10 0 59477  60342.000000  0    6332541.792   2359473.171  -1349414.733
10 0 59477  60462.000000  0    6503391.411   2230666.163   -452768.637
10 0 59477  60582.000000  0    6558021.477   2060917.424    451841.146
10 0 59477  60702.000000  0    6494747.344   1855222.819   1348496.969
10 0 59477  60822.000000  0    6314059.372   1619226.708   2221408.582
10 0 59477  60942.000000  0    6018626.413   1359083.457   3055201.474
10 0 59477  61062.000000  0    5613253.838   1081309.271   3835195.339
10 0 59477  61182.000000  0    5104798.480    792628.562   4547668.613
10 0 59477  61302.000000  0    4502043.762    499819.077   5180101.298
10 0 59477  61422.000000  0    3815538.903    209559.141   5721395.376
10 0 59477  61542.000000  0    3057403.558    -71720.009   6162066.434
10 0 59477  61662.000000  0    2241106.061   -337971.375   6494403.097
10 0 59477  61782.000000  0    1381219.865   -583658.093   6712596.434
10 0 59477  61902.000000  0     493159.860   -803866.090   6812837.050
10 0 59477  62022.000000  0    -407096.052   -994400.705   6793376.531
10 0 59477  62142.000000  0   -1303293.851  -1151866.065   6654555.114
10 0 59477  62262.000000  0   -2179195.594  -1273725.679   6398795.232
10 0 59477  62382.000000  0   -3018871.519  -1358342.685   6030561.557
10 0 59477  62502.000000  0   -3806990.148  -1405000.221   5556290.338
10 0 59477  62622.000000  0   -4529103.056  -1413902.671   4984283.715
10 0 59477  62742.000000  0   -5171916.294  -1386156.400   4324569.787
10 0 59477  62862.000000  0   -5723543.098  -1323729.737   3588730.293
10 0 59477  62982.000000  0   -6173731.651  -1229393.117   2789699.428
10 0 59477  63102.000000  0   -6514065.201  -1106641.344   1941538.026
10 0 59477  63222.000000  0   -6738130.670   -959599.434   1059182.893
10 0 59477  63342.000000  0   -6841646.317   -792913.682    158176.246
10 0 59477  63462.000000  0   -6822546.688   -611630.901   -745616.389
10 0 59477  63582.000000  0   -6681023.141   -421069.093  -1636294.846
10 0 59477  63702.000000  0   -6419517.920   -226682.779  -2498211.782
10 0 59477  63822.000000  0   -6042675.610    -33927.473  -3316253.522
10 0 59477  63942.000000  0   -5557249.845    151875.098  -4076110.433
10 0 59477  64062.000000  0   -4971968.501    325666.424  -4764527.100
10 0 59477  64182.000000  0   -4297363.522    482772.496  -5369529.264
10 0 59477  64302.000000  0   -3545569.787    619014.268  -5880624.466
10 0 59477  64422.000000  0   -2730097.451    730803.821  -6288973.480
10 0 59477  64542.000000  0   -1865584.636    815225.780  -6587530.649
10 0 59477  64662.000000  0    -967533.870    870102.835  -6771155.012
10 0 59477  64782.000000  0     -52036.682    894044.151  -6836688.224
10 0 59477  64902.000000  0     864507.298    886475.609  -6783002.187
10 0 59477  65022.000000  0    1765676.576    847651.781  -6611019.066
10 0 59477  65142.000000  0    2635316.568    778649.858  -6323697.521
10 0 59477  65262.000000  0    3457824.114    681345.464  -5925986.936
10 0 59477  65382.000000  0    4218423.978    558370.113  -5424750.038
10 0 59477  65502.000000  0    4903434.095    413050.939  -4828655.900
10 0 59477  65622.000000  0    5500516.708    249334.480  -4148041.667
10 0 59477  65742.000000  0    5998908.627     71694.545  -3394742.873
10 0 59477  65862.000000  0    6389625.472   -114973.548  -2581895.898
10 0 59477  65982.000000  0    6665637.008   -305470.562  -1723714.108
10 0 59477  66102.000000  0    6822006.487   -494420.001   -835239.257
10 0 59477  66222.000000  0    6855989.715   -676400.338     67925.106
10 0 59477  66342.000000  0    6767092.083   -846080.431    969893.377
10 0 59477  66462.000000  0    6557080.260   -998354.374   1854785.440
10 0 59477  66582.000000  0    6229949.123  -1128472.133   2707015.704
10 0 59477  66702.000000  0    5791841.212  -1232162.210   3511576.668
10 0 59477  66822.000000  0    5250924.994  -1305743.381   4254308.867
10 0 59477  66942.000000  0    4617233.690  -1346223.832   4922154.079
10 0 59477  67062.000000  0    3902468.995  -1351383.060   5503385.286
10 0 59477  67182.000000  0    3119775.803  -1319835.862   5987810.815
10 0 59477  67302.000000  0    2283491.852  -1251078.065   6366948.377
10 0 59477  67422.000000  0    1408879.769  -1145512.570   6634167.835
10 0 59477  67542.000000  0     511844.254  -1004455.217   6784801.972
10 0 59477  67662.000000  0    -391359.276   -830119.653   6816222.151
10 0 59477  67782.000000  0   -1284418.590   -625582.667   6727880.027
10 0 59477  67902.000000  0   -2151257.692   -394730.053   6521316.267
10 0 59477  68022.000000  0   -2976324.695   -142183.487   6200135.669
10 0 59477  68142.000000  0   -3744871.292    126790.233   5769949.452
10 0 59477  68262.000000  0   -4443219.920    406386.088   5238283.488
10 0 59477  68382.000000  0   -5059012.956    690382.154   4614452.520
10 0 59477  68502.000000  0   -5581439.606    972273.229   3909402.151
10 0 59477  68622.000000  0   -6001434.314   1245414.299   3135519.642
10 0 59477  68742.000000  0   -6311843.452   1503170.640   2306417.766
10 0 59477  68862.000000  0   -6507556.356   1739070.738   1436693.638
10 0 59477  68982.000000  0   -6585597.388   1946958.938    541666.951
10 0 59477  69102.000000  0   -6545174.558   2121143.751   -362898.174
10 0 59477  69222.000000  0   -6387683.343   2256536.952  -1261079.866
10 0 59477  69342.000000  0   -6116666.723   2348780.815  -2137087.162
10 0 59477  69462.000000  0   -5737732.756   2394360.749  -2975545.779
10 0 59477  69582.000000  0   -5258429.895   2390699.528  -3761774.000
10 0 59477  69702.000000  0   -4688085.601   2336230.460  -4482041.146
99
